NAVSTAR 77 (USA 289)    
1 43873U 18109A   24030.76913119  .00000006  00000+0  00000+0 0  9994
2 43873  55.2439 126.4990 0028598 193.0264  13.4748  2.00573551 37659
